IRIDIUM 39              
1 25042U 97069D   25153.69801702  .00000737  00000+0  18794-3 0  9991
2 25042  86.3941 217.3392 0017666   3.2770 356.8546 14.49206056447120
IRIDIUM 42              
1 25077U 97077A   25154.24205477  .00000571  00000+0  18845-3 0  9990
2 25077  86.3971 245.1713 0002669 109.6487 250.4999 14.36343363439198
IRIDIUM 44              
1 25078U 97077B   25153.74779065  .00000523  00000+0  15906-3 0  9996
2 25078  86.3981 227.3418 0004169  85.9984 274.1692 14.40232475441652
IRIDIUM 24              
1 25105U 97082B   25153.87827411  .00000607  00000+0  17865-3 0  9995
2 25105  86.3899  86.3700 0013194 119.1389 241.1134 14.42086935441403
IRIDIUM 51              
1 25262U 98018A   25154.18510344  .00049943  00000+0  11339-2 0  9993
2 25262  86.3841  62.7624 0084813 305.4965  53.8396 15.39046025445093
IRIDIUM 57              
1 25273U 98019B   25154.23450276  .00000459  00000+0  15178-3 0  9994
2 25273  86.3965 151.1070 0002360  90.8093 269.3375 14.35885400422992
